[{"OBJECT_NAME":"STARLINK-32341","OBJECT_ID":"2024-191U","EPOCH":"2026-03-09T22:30:29.356992","MEAN_MOTION":15.27568221,"ECCENTRICITY":0.00014554,"INCLINATION":43.0033,"RA_OF_ASC_NODE":153.1642,"ARG_OF_PERICENTER":265.1921,"MEAN_ANOMALY":94.8764,"EPHEMERIS_TYPE":0,"CLASSIFICATION_TYPE":"U","NORAD_CAT_ID":61639,"ELEMENT_SET_NO":999,"REV_AT_EPOCH":7757,"BSTAR":1.2380026e-5,"MEAN_MOTION_DOT":7.8e-7,"MEAN_MOTION_DDOT":0},{"OBJECT_NAME":"OBJECT H","OBJECT_ID":"2025-155H","EPOCH":"2026-03-09T22:09:58.611456","MEAN_MOTION":15.27590961,"ECCENTRICITY":0.00081993,"INCLINATION":97.4482,"RA_OF_ASC_NODE":37.3122,"ARG_OF_PERICENTER":152.0629,"MEAN_ANOMALY":208.1051,"EPHEMERIS_TYPE":0,"CLASSIFICATION_TYPE":"U","NORAD_CAT_ID":64883,"ELEMENT_SET_NO":999,"REV_AT_EPOCH":6559,"BSTAR":0.00050403256,"MEAN_MOTION_DOT":0.00013547,"MEAN_MOTION_DDOT":0}]
